{
    "links": {
        "self": "http://www.neowsapp.com/rest/v1/neo/3432565?api_key=iIulBulltgU6a56xZRHN4H3l9WmuAYTsLGpBGhQ2"
    },
    "id": "3432565",
    "neo_reference_id": "3432565",
    "name": "(2008 UF)",
    "designation": "2008 UF",
    "nasa_jpl_url": "http://ssd.jpl.nasa.gov/sbdb.cgi?sstr=3432565",
    "absolute_magnitude_h": 26.2,
    "estimated_diameter": {
        "kilometers": {
            "estimated_diameter_min": 0.0152951935,
            "estimated_diameter_max": 0.0342010925
        },
        "meters": {
            "estimated_diameter_min": 15.2951935344,
            "estimated_diameter_max": 34.201092472
        },
        "miles": {
            "estimated_diameter_min": 0.0095039897,
            "estimated_diameter_max": 0.021251567
        },
        "feet": {
            "estimated_diameter_min": 50.1810827555,
            "estimated_diameter_max": 112.2083122258
        }
    },
    "is_potentially_hazardous_asteroid": false,
    "close_approach_data": [
        {
            "close_approach_date": "2008-10-18",
            "close_approach_date_full": "2008-Oct-18 00:40",
            "epoch_date_close_approach": 1224290400000,
            "relative_velocity": {
                "kilometers_per_second": "6.7871083258",
                "kilometers_per_hour": "24433.589972747",
                "miles_per_hour": "15182.0826138994"
            },
            "miss_distance": {
                "astronomical": "0.0414330514",
                "lunar": "16.1174569946",
                "kilometers": "6198296.237040518",
                "miles": "3851442.6879264284"
            },
            "orbiting_body": "Earth"
        },
        {
            "close_approach_date": "2078-08-28",
            "close_approach_date_full": "2078-Aug-28 13:18",
            "epoch_date_close_approach": 3428918280000,
            "relative_velocity": {
                "kilometers_per_second": "16.8866720667",
                "kilometers_per_hour": "60792.019440192",
                "miles_per_hour": "37773.796746046"
            },
            "miss_distance": {
                "astronomical": "0.4362004631",
                "lunar": "169.6819801459",
                "kilometers": "65254660.172773597",
                "miles": "40547365.6250337586"
            },
            "orbiting_body": "Earth"
        },
        {
            "close_approach_date": "2135-11-29",
            "close_approach_date_full": "2135-Nov-29 09:51",
            "epoch_date_close_approach": 5235616260000,
            "relative_velocity": {
                "kilometers_per_second": "17.7167656993",
                "kilometers_per_hour": "63780.3565173029",
                "miles_per_hour": "39630.6331926541"
            },
            "miss_distance": {
                "astronomical": "0.4513795404",
                "lunar": "175.5866412156",
                "kilometers": "67525417.805418948",
                "miles": "41958348.9897915624"
            },
            "orbiting_body": "Earth"
        }
    ],
    "orbital_data": {
        "orbit_id": "9",
        "orbit_determination_date": "2017-04-06 09:02:32",
        "first_observation_date": "2008-10-20",
        "last_observation_date": "2008-10-31",
        "data_arc_in_days": 11,
        "observations_used": 24,
        "orbit_uncertainty": "8",
        "minimum_orbit_intersection": ".0412591",
        "jupiter_tisserand_invariant": "4.185",
        "epoch_osculation": "2454763.5",
        "eccentricity": ".3717229270204939",
        "semi_major_axis": "1.650426138641578",
        "inclination": "9.140330234932492",
        "ascending_node_longitude": "206.6710916496187",
        "orbital_period": "774.4485422257465",
        "perihelion_distance": "1.036924903554599",
        "perihelion_argument": "175.3805743452712",
        "aphelion_distance": "2.263927373728557",
        "perihelion_time": "2454755.105415211572",
        "mean_anomaly": "3.902196671645581",
        "mean_motion": ".4648468947534831",
        "equinox": "J2000",
        "orbit_class": {
            "orbit_class_type": "AMO",
            "orbit_class_description": "Near-Earth asteroid orbits similar to that of 1221 Amor",
            "orbit_class_range": "1.017 AU < q (perihelion) < 1.3 AU"
        }
    },
    "is_sentry_object": false
}